SENTINEL-3A             
1 41335U 16011A   26197.81136017  .00000040  00000+0  34464-4 0  9995
2 41335  98.6236 264.7674 0001354  89.3793 270.7543 14.26740023542288
SENTINEL-3B             
1 43437U 18039A   26197.78450514  .00000048  00000+0  37772-4 0  9992
2 43437  98.6236 264.8900 0001186 119.7266 240.4033 14.26736639428348
