{"fetched_at":"2026-07-17T06:38:34.818Z","source":"https://celestrak.org/NORAD/elements/gp.php?NAME=SENTINEL&FORMAT=JSON","constellation":"sentinel-3","records":[{"OBJECT_NAME":"SENTINEL-3A","OBJECT_ID":"2016-011A","EPOCH":"2026-07-16T19:28:21.518688","CLASSIFICATION_TYPE":"U","MEAN_MOTION":14.26740023,"ECCENTRICITY":0.0001354,"INCLINATION":98.6236,"RA_OF_ASC_NODE":264.7674,"ARG_OF_PERICENTER":89.3793,"MEAN_ANOMALY":270.7543,"EPHEMERIS_TYPE":0,"NORAD_CAT_ID":41335,"ELEMENT_SET_NO":999,"REV_AT_EPOCH":54228,"BSTAR":0.000034464,"MEAN_MOTION_DOT":4e-7,"MEAN_MOTION_DDOT":0},{"OBJECT_NAME":"SENTINEL-3B","OBJECT_ID":"2018-039A","EPOCH":"2026-07-16T18:49:41.244096","CLASSIFICATION_TYPE":"U","MEAN_MOTION":14.26736639,"ECCENTRICITY":0.0001186,"INCLINATION":98.6236,"RA_OF_ASC_NODE":264.89,"ARG_OF_PERICENTER":119.7266,"MEAN_ANOMALY":240.4033,"EPHEMERIS_TYPE":0,"NORAD_CAT_ID":43437,"ELEMENT_SET_NO":999,"REV_AT_EPOCH":42834,"BSTAR":0.000037772,"MEAN_MOTION_DOT":4.8e-7,"MEAN_MOTION_DDOT":0}]}
